[{"OBJECT_NAME":"R2","OBJECT_ID":"2020-081J","EPOCH":"2026-03-09T01:19:00.333408","MEAN_MOTION":15.23806181,"ECCENTRICITY":0.0005079,"INCLINATION":36.8981,"RA_OF_ASC_NODE":317.5127,"ARG_OF_PERICENTER":163.7384,"MEAN_ANOMALY":196.3528,"EPHEMERIS_TYPE":0,"CLASSIFICATION_TYPE":"U","NORAD_CAT_ID":46913,"ELEMENT_SET_NO":999,"REV_AT_EPOCH":29669,"BSTAR":0.000513162,"MEAN_MOTION_DOT":0.00012575,"MEAN_MOTION_DDOT":0},{"OBJECT_NAME":"STARLINK-30178","OBJECT_ID":"2023-105T","EPOCH":"2026-03-09T22:00:01.999584","MEAN_MOTION":15.22405085,"ECCENTRICITY":8.111e-5,"INCLINATION":42.9995,"RA_OF_ASC_NODE":258.5418,"ARG_OF_PERICENTER":319.8962,"MEAN_ANOMALY":154.376,"EPHEMERIS_TYPE":0,"CLASSIFICATION_TYPE":"U","NORAD_CAT_ID":57447,"ELEMENT_SET_NO":999,"REV_AT_EPOCH":578,"BSTAR":0.0055738617,"MEAN_MOTION_DOT":0.00133479,"MEAN_MOTION_DDOT":0}]
